start=new Date('2023-01-16T00:00:00.000Z').valueOf();
sats=[{"INCLINATION":"53.2153","PERIAPSIS":"538.894","GP_ID":"223122418","TIME_SYSTEM":"UTC","FILE":"3748096","APOAPSIS":"540.479","EPOCH":"2023-01-15T21:00:34.745760","OBJECT_ID":"2022-051S","RCS_SIZE":"LARGE","REV_AT_EPOCH":"3808","MEAN_ANOMALY":"280.0134","NORAD_CAT_ID":"52549","MEAN_ELEMENT_THEORY":"SGP4","CENTER_NAME":"EARTH","SITE":"AFWTR","TLE_LINE1":"1 52549U 22051S   23015.87540215  .00008483  00000-0  55012-3 0  9997","RA_OF_ASC_NODE":"246.3554","BSTAR":"0.00055012000000","CLASSIFICATION_TYPE":"U","EPHEMERIS_TYPE":"0","TLE_LINE2":"2 52549  53.2153 246.3554 0001146  80.0987 280.0134 15.08859252 38081","DECAY_DATE":null,"ARG_OF_PERICENTER":"80.0987","MEAN_MOTION_DOT":"0.00008483","OBJECT_NAME":"STARLINK-3935","LAUNCH_DATE":"2022-05-13","MEAN_MOTION_DDOT":"0.0000000000000","OBJECT_TYPE":"PAYLOAD","ECCENTRICITY":"0.00011460","MEAN_MOTION":"15.08859252","ELEMENT_SET_NO":"999","PERIOD":"95.436","COUNTRY_CODE":"US","SEMIMAJOR_AXIS":"6917.822","REF_FRAME":"TEME"},{"MEAN_ELEMENT_THEORY":"SGP4","CENTER_NAME":"EARTH","TLE_LINE1":"1 52550U 22051T   23015.93060073  .00003065  00000-0  21053-3 0  9994","SITE":"AFWTR","RA_OF_ASC_NODE":"246.1109","BSTAR":"0.00021053000000","RCS_SIZE":"LARGE","REV_AT_EPOCH":"3809","MEAN_ANOMALY":"319.8824","NORAD_CAT_ID":"52550","FILE":"3748096","APOAPSIS":"541.396","EPOCH":"2023-01-15T22:20:03.903072","OBJECT_ID":"2022-051T","INCLINATION":"53.2152","PERIAPSIS":"538.048","GP_ID":"223122657","TIME_SYSTEM":"UTC","COUNTRY_CODE":"US","SEMIMAJOR_AXIS":"6917.857","PERIOD":"95.437","REF_FRAME":"TEME","OBJECT_TYPE":"PAYLOAD","MEAN_MOTION_DDOT":"0.0000000000000","ECCENTRICITY":"0.00024200","MEAN_MOTION":"15.08847584","ELEMENT_SET_NO":"999","DECAY_DATE":null,"MEAN_MOTION_DOT":"0.00003065","ARG_OF_PERICENTER":"40.2346","OBJECT_NAME":"STARLINK-3965","LAUNCH_DATE":"2022-05-13","CLASSIFICATION_TYPE":"U","EPHEMERIS_TYPE":"0","TLE_LINE2":"2 52550  53.2152 246.1109 0002420  40.2346 319.8824 15.08847584 38092"},{"CENTER_NAME":"EARTH","MEAN_ELEMENT_THEORY":"SGP4","RA_OF_ASC_NODE":"246.0731","TLE_LINE1":"1 52551U 22051U   23015.93795639 -.00000504  00000-0 -13604-4 0  9999","SITE":"AFWTR","BSTAR":"-0.00001360400000","RCS_SIZE":"LARGE","REV_AT_EPOCH":"3802","NORAD_CAT_ID":"52551","MEAN_ANOMALY":"282.7448","FILE":"3748322","APOAPSIS":"540.541","EPOCH":"2023-01-15T22:30:39.432096","OBJECT_ID":"2022-051U","PERIAPSIS":"538.950","INCLINATION":"53.2125","GP_ID":"223150221","TIME_SYSTEM":"UTC","SEMIMAJOR_AXIS":"6917.880","COUNTRY_CODE":"US","PERIOD":"95.438","REF_FRAME":"TEME","ECCENTRICITY":"0.00011500","MEAN_MOTION_DDOT":"0.0000000000000","OBJECT_TYPE":"PAYLOAD","MEAN_MOTION":"15.08840049","ELEMENT_SET_NO":"999","DECAY_DATE":null,"ARG_OF_PERICENTER":"77.3673","MEAN_MOTION_DOT":"-0.00000504","LAUNCH_DATE":"2022-05-13","OBJECT_NAME":"STARLINK-3969","CLASSIFICATION_TYPE":"U","EPHEMERIS_TYPE":"0","TLE_LINE2":"2 52551  53.2125 246.0731 0001150  77.3673 282.7448 15.08840049 38028"},{"TLE_LINE1":"1 52552U 22051V   23015.91956382  .00013929  00000-0  89141-3 0  9993","RA_OF_ASC_NODE":"246.1634","SITE":"AFWTR","CENTER_NAME":"EARTH","MEAN_ELEMENT_THEORY":"SGP4","BSTAR":"0.00089141000000","RCS_SIZE":"LARGE","NORAD_CAT_ID":"52552","MEAN_ANOMALY":"311.6459","REV_AT_EPOCH":"3809","FILE":"3748096","APOAPSIS":"541.230","OBJECT_ID":"2022-051V","EPOCH":"2023-01-15T22:04:10.314048","PERIAPSIS":"538.231","INCLINATION":"53.2150","TIME_SYSTEM":"UTC","GP_ID":"223122655","PERIOD":"95.437","COUNTRY_CODE":"US","SEMIMAJOR_AXIS":"6917.865","REF_FRAME":"TEME","ECCENTRICITY":"0.00021670","MEAN_MOTION_DDOT":"0.0000000000000","OBJECT_TYPE":"PAYLOAD","ELEMENT_SET_NO":"999","MEAN_MOTION":"15.08844903","MEAN_MOTION_DOT":"0.00013929","ARG_OF_PERICENTER":"48.4719","DECAY_DATE":null,"LAUNCH_DATE":"2022-05-13","OBJECT_NAME":"STARLINK-3966","EPHEMERIS_TYPE":"0","CLASSIFICATION_TYPE":"U","TLE_LINE2":"2 52552  53.2150 246.1634 0002167  48.4719 311.6459 15.08844903 38093"},{"FILE":"3748322","APOAPSIS":"541.131","EPOCH":"2023-01-15T22:25:21.887904","OBJECT_ID":"2022-051W","INCLINATION":"53.2153","PERIAPSIS":"538.279","TIME_SYSTEM":"UTC","GP_ID":"223149220","RA_OF_ASC_NODE":"246.0938","TLE_LINE1":"1 52553U 22051W   23015.93428111  .00010115  00000-0  65245-3 0  9993","SITE":"AFWTR","MEAN_ELEMENT_THEORY":"SGP4","CENTER_NAME":"EARTH","BSTAR":"0.00065245000000","RCS_SIZE":"LARGE","MEAN_ANOMALY":"317.9298","NORAD_CAT_ID":"52553","REV_AT_EPOCH":"3802","MEAN_MOTION_DOT":"0.00010115","ARG_OF_PERICENTER":"42.1852","DECAY_DATE":null,"OBJECT_NAME":"STARLINK-3858","LAUNCH_DATE":"2022-05-13","EPHEMERIS_TYPE":"0","CLASSIFICATION_TYPE":"U","TLE_LINE2":"2 52553  53.2153 246.0938 0002061  42.1852 317.9298 15.08853144 38025","PERIOD":"95.437","COUNTRY_CODE":"US","SEMIMAJOR_AXIS":"6917.840","REF_FRAME":"TEME","OBJECT_TYPE":"PAYLOAD","MEAN_MOTION_DDOT":"0.0000000000000","ECCENTRICITY":"0.00020610","ELEMENT_SET_NO":"999","MEAN_MOTION":"15.08853144"},{"REF_FRAME":"TEME","SEMIMAJOR_AXIS":"6917.855","COUNTRY_CODE":"US","PERIOD":"95.437","ELEMENT_SET_NO":"999","MEAN_MOTION":"15.08848339","ECCENTRICITY":"0.00021090","OBJECT_TYPE":"PAYLOAD","MEAN_MOTION_DDOT":"0.0000000000000","LAUNCH_DATE":"2022-05-13","OBJECT_NAME":"STARLINK-3770","ARG_OF_PERICENTER":"32.9030","MEAN_MOTION_DOT":"0.00007975","DECAY_DATE":null,"TLE_LINE2":"2 52554  53.2142 251.2227 0002109  32.9030 327.2093 15.08848339 38017","EPHEMERIS_TYPE":"0","CLASSIFICATION_TYPE":"U","BSTAR":"0.00051846000000","TLE_LINE1":"1 52554U 22051X   23015.90622275  .00007975  00000-0  51846-3 0  9990","RA_OF_ASC_NODE":"251.2227","SITE":"AFWTR","CENTER_NAME":"EARTH","MEAN_ELEMENT_THEORY":"SGP4","NORAD_CAT_ID":"52554","MEAN_ANOMALY":"327.2093","REV_AT_EPOCH":"3801","RCS_SIZE":"MEDIUM","APOAPSIS":"541.179","EPOCH":"2023-01-15T21:44:57.645600","OBJECT_ID":"2022-051X","FILE":"3748096","TIME_SYSTEM":"UTC","GP_ID":"223122425","PERIAPSIS":"538.261","INCLINATION":"53.2142"},{"NORAD_CAT_ID":"52555","MEAN_ANOMALY":"308.3085","REV_AT_EPOCH":"3809","RCS_SIZE":"LARGE","BSTAR":"0.00036884000000","RA_OF_ASC_NODE":"246.1286","TLE_LINE1":"1 52555U 22051Y   23015.92692134  .00005589  00000-0  36884-3 0  9998","SITE":"AFWTR","CENTER_NAME":"EARTH","MEAN_ELEMENT_THEORY":"SGP4","TIME_SYSTEM":"UTC","GP_ID":"223122417","PERIAPSIS":"538.453","INCLINATION":"53.2132","APOAPSIS":"540.961","OBJECT_ID":"2022-051Y","EPOCH":"2023-01-15T22:14:46.003776","FILE":"3748096","ELEMENT_SET_NO":"999","MEAN_MOTION":"15.08852611","ECCENTRICITY":"0.00018130","OBJECT_TYPE":"PAYLOAD","MEAN_MOTION_DDOT":"0.0000000000000","REF_FRAME":"TEME","COUNTRY_CODE":"US","PERIOD":"95.437","SEMIMAJOR_AXIS":"6917.842","TLE_LINE2":"2 52555  53.2132 246.1286 0001813  51.8070 308.3085 15.08852611 38097","EPHEMERIS_TYPE":"0","CLASSIFICATION_TYPE":"U","LAUNCH_DATE":"2022-05-13","OBJECT_NAME":"STARLINK-3949","ARG_OF_PERICENTER":"51.8070","MEAN_MOTION_DOT":"0.00005589","DECAY_DATE":null},{"MEAN_MOTION":"15.11359426","ELEMENT_SET_NO":"999","ECCENTRICITY":"0.00024630","OBJECT_TYPE":"PAYLOAD","MEAN_MOTION_DDOT":"0.0000000000000","REF_FRAME":"TEME","PERIOD":"95.278","COUNTRY_CODE":"US","SEMIMAJOR_AXIS":"6910.190","TLE_LINE2":"2 52556  53.2158 250.5301 0002463 104.8085 255.3181 15.11359426 37952","CLASSIFICATION_TYPE":"U","EPHEMERIS_TYPE":"0","LAUNCH_DATE":"2022-05-13","OBJECT_NAME":"STARLINK-3763","DECAY_DATE":null,"MEAN_MOTION_DOT":"0.00027101","ARG_OF_PERICENTER":"104.8085","REV_AT_EPOCH":"3795","NORAD_CAT_ID":"52556","MEAN_ANOMALY":"255.3181","RCS_SIZE":"LARGE","BSTAR":"0.00159980000000","CENTER_NAME":"EARTH","MEAN_ELEMENT_THEORY":"SGP4","TLE_LINE1":"1 52556U 22051Z   23015.89789547  .00027101  00000-0  15998-2 0  9996","SITE":"AFWTR","RA_OF_ASC_NODE":"250.5301","GP_ID":"223149971","TIME_SYSTEM":"UTC","PERIAPSIS":"530.353","INCLINATION":"53.2158","EPOCH":"2023-01-15T21:32:58.168608","APOAPSIS":"533.757","OBJECT_ID":"2022-051Z","FILE":"3748322"},{"MEAN_MOTION":"15.08861463","ELEMENT_SET_NO":"999","ECCENTRICITY":"0.00014540","OBJECT_TYPE":"PAYLOAD","MEAN_MOTION_DDOT":"0.0000000000000","REF_FRAME":"TEME","COUNTRY_CODE":"US","PERIOD":"95.436","SEMIMAJOR_AXIS":"6917.815","TLE_LINE2":"2 52557  53.2132 246.1765 0001454  72.9532 287.1620 15.08861463 38026","CLASSIFICATION_TYPE":"U","EPHEMERIS_TYPE":"0","LAUNCH_DATE":"2022-05-13","OBJECT_NAME":"STARLINK-3943","DECAY_DATE":null,"ARG_OF_PERICENTER":"72.9532","MEAN_MOTION_DOT":"0.00018711","REV_AT_EPOCH":"3802","NORAD_CAT_ID":"52557","MEAN_ANOMALY":"287.1620","RCS_SIZE":"LARGE","BSTAR":"0.00118990000000","CENTER_NAME":"EARTH","MEAN_ELEMENT_THEORY":"SGP4","SITE":"AFWTR","TLE_LINE1":"1 52557U 22051AA  23015.91588199  .00018711  00000-0  11899-2 0  9993","RA_OF_ASC_NODE":"246.1765","GP_ID":"223148722","TIME_SYSTEM":"UTC","PERIAPSIS":"538.674","INCLINATION":"53.2132","APOAPSIS":"540.686","OBJECT_ID":"2022-051AA","EPOCH":"2023-01-15T21:58:52.203936","FILE":"3748322"},{"PERIAPSIS":"538.555","INCLINATION":"53.2175","GP_ID":"223148972","TIME_SYSTEM":"UTC","FILE":"3748322","APOAPSIS":"540.897","EPOCH":"2023-01-15T22:00:11.875104","OBJECT_ID":"2022-051AB","RCS_SIZE":"LARGE","REV_AT_EPOCH":"3815","NORAD_CAT_ID":"52558","MEAN_ANOMALY":"264.8938","CENTER_NAME":"EARTH","MEAN_ELEMENT_THEORY":"SGP4","TLE_LINE1":"1 52558U 22051AB  23015.91680411  .00004538  00000-0  30295-3 0  9998","RA_OF_ASC_NODE":"236.1628","SITE":"AFWTR","BSTAR":"0.00030295000000","CLASSIFICATION_TYPE":"U","EPHEMERIS_TYPE":"0","TLE_LINE2":"2 52558  53.2175 236.1628 0001693  95.2248 264.8938 15.08846280 38156","DECAY_DATE":null,"ARG_OF_PERICENTER":"95.2248","MEAN_MOTION_DOT":"0.00004538","LAUNCH_DATE":"2022-05-13","OBJECT_NAME":"STARLINK-3954","ECCENTRICITY":"0.00016930","MEAN_MOTION_DDOT":"0.0000000000000","OBJECT_TYPE":"PAYLOAD","MEAN_MOTION":"15.08846280","ELEMENT_SET_NO":"999","SEMIMAJOR_AXIS":"6917.861","COUNTRY_CODE":"US","PERIOD":"95.437","REF_FRAME":"TEME"}];
